ONEWEB-0125             
1 47271U 20100P   25275.11090938  .00000376  00000+0  10093-2 0  9996
2 47271  87.8936  41.9153 0001745  89.4591 270.6738 13.12442549230788
ONEWEB-0126             
1 47272U 20100Q   25275.05589841  .00000053  00000+0  11260-3 0  9996
2 47272  87.8946  41.9491 0001814 100.6475 259.4858 13.12442370230846
ONEWEB-0127             
1 47273U 20100R   25275.09793248  .00000064  00000+0  14200-3 0  9998
2 47273  87.8939  41.9520 0001765 103.3569 256.7756 13.12443366230877
ONEWEB-0128             
1 47274U 20100S   25275.12064056  .00000354  00000+0  94916-3 0  9995
2 47274  87.8932  41.9702 0001610 107.1602 252.9703 13.12441929230897
ONEWEB-0129             
1 47275U 20100T   25275.09955750  .00000191  00000+0  49683-3 0  9992
2 47275  87.8937  41.9205 0002752 114.5956 245.5460 13.12443596230826
ONEWEB-0130             
1 47276U 20100U   25274.89841520  .00000189  00000+0  48867-3 0  9999
2 47276  87.8936  41.9572 0001699 103.0966 257.0352 13.12440753230769
ONEWEB-0131             
1 47277U 20100V   25275.04764823  .00000156  00000+0  39948-3 0  9992
2 47277  87.8938  41.9572 0001671 100.6932 259.4385 13.12441710230821
ONEWEB-0132             
1 47278U 20100W   25275.07684697 -.00000596  00000+0 -16924-2 0  9994
2 47278  87.8935  41.9527 0001634  99.8289 260.3024 13.12443737230723
ONEWEB-0133             
1 47279U 20100X   25275.09292367 -.00000240  00000+0 -70350-3 0  9996
2 47279  87.8927  41.9173 0001570 102.0772 258.0533 13.12442381230885
ONEWEB-0134             
1 47280U 20100Y   25275.06223856 -.00000142  00000+0 -42917-3 0  9991
2 47280  87.8937  41.9127 0001675 108.2127 251.9183 13.12440678230852
ONEWEB-0135             
1 47281U 20100Z   25275.10929334  .00000327  00000+0  87362-3 0  9997
2 47281  87.8934  41.9440 0001548 114.2328 245.8962 13.12442927230886
ONEWEB-0136             
1 47282U 20100AA  25274.90004775 -.00000038  00000+0 -14227-3 0  9999
2 47282  87.8937  41.9541 0001789 114.1818 245.9498 13.12441491230781
ONEWEB-0137             
1 47283U 20100AB  25275.08657712 -.00000287  00000+0 -83269-3 0  9993
2 47283  87.8937  41.9230 0001858  96.6100 263.5240 13.12442688230715
ONEWEB-0138             
1 47284U 20100AC  25275.06547469 -.00000279  00000+0 -80956-3 0  9990
2 47284  87.8936  41.9366 0001729 105.6948 254.4371 13.12440057230793
ONEWEB-0139             
1 47285U 20100AD  25275.10457497  .00000386  00000+0  10385-2 0  9992
2 47285  87.8935  41.9194 0001671  99.8967 260.2351 13.12444306230876
ONEWEB-0140             
1 47286U 20100AE  25275.05899927 -.00000206  00000+0 -60935-3 0  9995
2 47286  87.8937  41.9137 0001731 103.0668 257.0654 13.12440797230835
ONEWEB-0141             
1 47287U 20100AF  25275.10428066  .00000245  00000+0  64685-3 0  9991
2 47287  87.8929  41.9184 0002004  94.3945 265.7413 13.12442525230822
