[{"OBJECT_NAME":"ONEWEB-0125","OBJECT_ID":"2020-100P","EPOCH":"2025-10-02T02:39:42.570432","MEAN_MOTION":13.12442549,"ECCENTRICITY":0.0001745,"INCLINATION":87.8936,"RA_OF_ASC_NODE":41.9153,"ARG_OF_PERICENTER":89.4591,"MEAN_ANOMALY":270.6738,"EPHEMERIS_TYPE":0,"CLASSIFICATION_TYPE":"U","NORAD_CAT_ID":47271,"ELEMENT_SET_NO":999,"REV_AT_EPOCH":23078,"BSTAR":0.0010093,"MEAN_MOTION_DOT":3.76e-6,"MEAN_MOTION_DDOT":0},{"OBJECT_NAME":"ONEWEB-0126","OBJECT_ID":"2020-100Q","EPOCH":"2025-10-02T01:20:29.622624","MEAN_MOTION":13.1244237,"ECCENTRICITY":0.0001814,"INCLINATION":87.8946,"RA_OF_ASC_NODE":41.9491,"ARG_OF_PERICENTER":100.6475,"MEAN_ANOMALY":259.4858,"EPHEMERIS_TYPE":0,"CLASSIFICATION_TYPE":"U","NORAD_CAT_ID":47272,"ELEMENT_SET_NO":999,"REV_AT_EPOCH":23084,"BSTAR":0.0001126,"MEAN_MOTION_DOT":5.3e-7,"MEAN_MOTION_DDOT":0},{"OBJECT_NAME":"ONEWEB-0127","OBJECT_ID":"2020-100R","EPOCH":"2025-10-02T02:21:01.366272","MEAN_MOTION":13.12443366,"ECCENTRICITY":0.0001765,"INCLINATION":87.8939,"RA_OF_ASC_NODE":41.952,"ARG_OF_PERICENTER":103.3569,"MEAN_ANOMALY":256.7756,"EPHEMERIS_TYPE":0,"CLASSIFICATION_TYPE":"U","NORAD_CAT_ID":47273,"ELEMENT_SET_NO":999,"REV_AT_EPOCH":23087,"BSTAR":0.000142,"MEAN_MOTION_DOT":6.4e-7,"MEAN_MOTION_DDOT":0},{"OBJECT_NAME":"ONEWEB-0128","OBJECT_ID":"2020-100S","EPOCH":"2025-10-02T02:53:43.344384","MEAN_MOTION":13.12441929,"ECCENTRICITY":0.000161,"INCLINATION":87.8932,"RA_OF_ASC_NODE":41.9702,"ARG_OF_PERICENTER":107.1602,"MEAN_ANOMALY":252.9703,"EPHEMERIS_TYPE":0,"CLASSIFICATION_TYPE":"U","NORAD_CAT_ID":47274,"ELEMENT_SET_NO":999,"REV_AT_EPOCH":23089,"BSTAR":0.00094916,"MEAN_MOTION_DOT":3.54e-6,"MEAN_MOTION_DDOT":0},{"OBJECT_NAME":"ONEWEB-0129","OBJECT_ID":"2020-100T","EPOCH":"2025-10-02T02:23:21.768000","MEAN_MOTION":13.12443596,"ECCENTRICITY":0.0002752,"INCLINATION":87.8937,"RA_OF_ASC_NODE":41.9205,"ARG_OF_PERICENTER":114.5956,"MEAN_ANOMALY":245.546,"EPHEMERIS_TYPE":0,"CLASSIFICATION_TYPE":"U","NORAD_CAT_ID":47275,"ELEMENT_SET_NO":999,"REV_AT_EPOCH":23082,"BSTAR":0.00049683,"MEAN_MOTION_DOT":1.91e-6,"MEAN_MOTION_DDOT":0},{"OBJECT_NAME":"ONEWEB-0130","OBJECT_ID":"2020-100U","EPOCH":"2025-10-01T21:33:43.073280","MEAN_MOTION":13.12440753,"ECCENTRICITY":0.0001699,"INCLINATION":87.8936,"RA_OF_ASC_NODE":41.9572,"ARG_OF_PERICENTER":103.0966,"MEAN_ANOMALY":257.0352,"EPHEMERIS_TYPE":0,"CLASSIFICATION_TYPE":"U","NORAD_CAT_ID":47276,"ELEMENT_SET_NO":999,"REV_AT_EPOCH":23076,"BSTAR":0.00048867,"MEAN_MOTION_DOT":1.89e-6,"MEAN_MOTION_DDOT":0},{"OBJECT_NAME":"ONEWEB-0131","OBJECT_ID":"2020-100V","EPOCH":"2025-10-02T01:08:36.807072","MEAN_MOTION":13.1244171,"ECCENTRICITY":0.0001671,"INCLINATION":87.8938,"RA_OF_ASC_NODE":41.9572,"ARG_OF_PERICENTER":100.6932,"MEAN_ANOMALY":259.4385,"EPHEMERIS_TYPE":0,"CLASSIFICATION_TYPE":"U","NORAD_CAT_ID":47277,"ELEMENT_SET_NO":999,"REV_AT_EPOCH":23082,"BSTAR":0.00039948,"MEAN_MOTION_DOT":1.56e-6,"MEAN_MOTION_DDOT":0},{"OBJECT_NAME":"ONEWEB-0132","OBJECT_ID":"2020-100W","EPOCH":"2025-10-02T01:50:39.578208","MEAN_MOTION":13.12443737,"ECCENTRICITY":0.0001634,"INCLINATION":87.8935,"RA_OF_ASC_NODE":41.9527,"ARG_OF_PERICENTER":99.8289,"MEAN_ANOMALY":260.3024,"EPHEMERIS_TYPE":0,"CLASSIFICATION_TYPE":"U","NORAD_CAT_ID":47278,"ELEMENT_SET_NO":999,"REV_AT_EPOCH":23072,"BSTAR":-0.0016924,"MEAN_MOTION_DOT":-5.96e-6,"MEAN_MOTION_DDOT":0},{"OBJECT_NAME":"ONEWEB-0133","OBJECT_ID":"2020-100X","EPOCH":"2025-10-02T02:13:48.605088","MEAN_MOTION":13.12442381,"ECCENTRICITY":0.000157,"INCLINATION":87.8927,"RA_OF_ASC_NODE":41.9173,"ARG_OF_PERICENTER":102.0772,"MEAN_ANOMALY":258.0533,"EPHEMERIS_TYPE":0,"CLASSIFICATION_TYPE":"U","NORAD_CAT_ID":47279,"ELEMENT_SET_NO":999,"REV_AT_EPOCH":23088,"BSTAR":-0.0007035,"MEAN_MOTION_DOT":-2.4e-6,"MEAN_MOTION_DDOT":0},{"OBJECT_NAME":"ONEWEB-0134","OBJECT_ID":"2020-100Y","EPOCH":"2025-10-02T01:29:37.411584","MEAN_MOTION":13.12440678,"ECCENTRICITY":0.0001675,"INCLINATION":87.8937,"RA_OF_ASC_NODE":41.9127,"ARG_OF_PERICENTER":108.2127,"MEAN_ANOMALY":251.9183,"EPHEMERIS_TYPE":0,"CLASSIFICATION_TYPE":"U","NORAD_CAT_ID":47280,"ELEMENT_SET_NO":999,"REV_AT_EPOCH":23085,"BSTAR":-0.00042917,"MEAN_MOTION_DOT":-1.42e-6,"MEAN_MOTION_DDOT":0},{"OBJECT_NAME":"ONEWEB-0135","OBJECT_ID":"2020-100Z","EPOCH":"2025-10-02T02:37:22.944576","MEAN_MOTION":13.12442927,"ECCENTRICITY":0.0001548,"INCLINATION":87.8934,"RA_OF_ASC_NODE":41.944,"ARG_OF_PERICENTER":114.2328,"MEAN_ANOMALY":245.8962,"EPHEMERIS_TYPE":0,"CLASSIFICATION_TYPE":"U","NORAD_CAT_ID":47281,"ELEMENT_SET_NO":999,"REV_AT_EPOCH":23088,"BSTAR":0.00087362,"MEAN_MOTION_DOT":3.27e-6,"MEAN_MOTION_DDOT":0},{"OBJECT_NAME":"ONEWEB-0136","OBJECT_ID":"2020-100AA","EPOCH":"2025-10-01T21:36:04.125600","MEAN_MOTION":13.12441491,"ECCENTRICITY":0.0001789,"INCLINATION":87.8937,"RA_OF_ASC_NODE":41.9541,"ARG_OF_PERICENTER":114.1818,"MEAN_ANOMALY":245.9498,"EPHEMERIS_TYPE":0,"CLASSIFICATION_TYPE":"U","NORAD_CAT_ID":47282,"ELEMENT_SET_NO":999,"REV_AT_EPOCH":23078,"BSTAR":-0.00014227,"MEAN_MOTION_DOT":-3.8e-7,"MEAN_MOTION_DDOT":0},{"OBJECT_NAME":"ONEWEB-0137","OBJECT_ID":"2020-100AB","EPOCH":"2025-10-02T02:04:40.263168","MEAN_MOTION":13.12442688,"ECCENTRICITY":0.0001858,"INCLINATION":87.8937,"RA_OF_ASC_NODE":41.923,"ARG_OF_PERICENTER":96.61,"MEAN_ANOMALY":263.524,"EPHEMERIS_TYPE":0,"CLASSIFICATION_TYPE":"U","NORAD_CAT_ID":47283,"ELEMENT_SET_NO":999,"REV_AT_EPOCH":23071,"BSTAR":-0.00083269,"MEAN_MOTION_DOT":-2.87e-6,"MEAN_MOTION_DDOT":0},{"OBJECT_NAME":"ONEWEB-0138","OBJECT_ID":"2020-100AC","EPOCH":"2025-10-02T01:34:17.013216","MEAN_MOTION":13.12440057,"ECCENTRICITY":0.0001729,"INCLINATION":87.8936,"RA_OF_ASC_NODE":41.9366,"ARG_OF_PERICENTER":105.6948,"MEAN_ANOMALY":254.4371,"EPHEMERIS_TYPE":0,"CLASSIFICATION_TYPE":"U","NORAD_CAT_ID":47284,"ELEMENT_SET_NO":999,"REV_AT_EPOCH":23079,"BSTAR":-0.00080956,"MEAN_MOTION_DOT":-2.79e-6,"MEAN_MOTION_DDOT":0},{"OBJECT_NAME":"ONEWEB-0139","OBJECT_ID":"2020-100AD","EPOCH":"2025-10-02T02:30:35.277408","MEAN_MOTION":13.12444306,"ECCENTRICITY":0.0001671,"INCLINATION":87.8935,"RA_OF_ASC_NODE":41.9194,"ARG_OF_PERICENTER":99.8967,"MEAN_ANOMALY":260.2351,"EPHEMERIS_TYPE":0,"CLASSIFICATION_TYPE":"U","NORAD_CAT_ID":47285,"ELEMENT_SET_NO":999,"REV_AT_EPOCH":23087,"BSTAR":0.0010385,"MEAN_MOTION_DOT":3.86e-6,"MEAN_MOTION_DDOT":0},{"OBJECT_NAME":"ONEWEB-0140","OBJECT_ID":"2020-100AE","EPOCH":"2025-10-02T01:24:57.536928","MEAN_MOTION":13.12440797,"ECCENTRICITY":0.0001731,"INCLINATION":87.8937,"RA_OF_ASC_NODE":41.9137,"ARG_OF_PERICENTER":103.0668,"MEAN_ANOMALY":257.0654,"EPHEMERIS_TYPE":0,"CLASSIFICATION_TYPE":"U","NORAD_CAT_ID":47286,"ELEMENT_SET_NO":999,"REV_AT_EPOCH":23083,"BSTAR":-0.00060935,"MEAN_MOTION_DOT":-2.06e-6,"MEAN_MOTION_DDOT":0},{"OBJECT_NAME":"ONEWEB-0141","OBJECT_ID":"2020-100AF","EPOCH":"2025-10-02T02:30:09.849024","MEAN_MOTION":13.12442525,"ECCENTRICITY":0.0002004,"INCLINATION":87.8929,"RA_OF_ASC_NODE":41.9184,"ARG_OF_PERICENTER":94.3945,"MEAN_ANOMALY":265.7413,"EPHEMERIS_TYPE":0,"CLASSIFICATION_TYPE":"U","NORAD_CAT_ID":47287,"ELEMENT_SET_NO":999,"REV_AT_EPOCH":23082,"BSTAR":0.00064685,"MEAN_MOTION_DOT":2.45e-6,"MEAN_MOTION_DDOT":0}]
